CCSDS_OMM_VERS,COMMENT,CREATION_DATE,ORIGINATOR,OBJECT_NAME,OBJECT_ID,CENTER_NAME,REF_FRAME,TIME_SYSTEM,MEAN_ELEMENT_THEORY,EPOCH,MEAN_MOTION,ECCENTRICITY,INCLINATION,RA_OF_ASC_NODE,ARG_OF_PERICENTER,MEAN_ANOMALY,EPHEMERIS_TYPE,CLASSIFICATION_TYPE,NORAD_CAT_ID,ELEMENT_SET_NO,REV_AT_EPOCH,BSTAR,MEAN_MOTION_DOT,MEAN_MOTION_DDOT,SEMIMAJOR_AXIS,PERIOD,APOAPSIS,PERIAPSIS,OBJECT_TYPE,RCS_SIZE,COUNTRY_CODE,LAUNCH_DATE,SITE,DECAY_DATE,FILE,GP_ID,TLE_LINE0,TLE_LINE1,TLE_LINE2
"2.0","GENERATED VIA SPACE-TRACK.ORG API","2020-11-27T20:30:34","18 SPCS","COSMOS 2498","2014-028C","EARTH","TEME","UTC","SGP4","2020-11-27T09:43:44.102784","12.42890116","0.00204430","82.4444","299.0076","166.8742","193.2878","0","U","39763","999","29568","0.00016547000000","0.00000033","0.0000000000000","7872.512","115.858","1510.471","1478.283","PAYLOAD","LARGE","CIS","2014-05-23","PKMTR","","2891346","166458325","0 COSMOS 2498","1 39763U 14028C   20332.40537156 +.00000033 +00000-0 +16547-3 0  9996","2 39763 082.4444 299.0076 0020443 166.8742 193.2878 12.42890116295688"
"2.0","GENERATED VIA SPACE-TRACK.ORG API","2020-11-27T04:57:55","18 SPCS","COSMOS 1732","1986-015A","EARTH","TEME","UTC","SGP4","2020-11-26T22:19:38.385696","12.40987220","0.00257860","73.6074","143.4133","89.2233","271.1765","0","U","16593","999","57619","0.00010093000000","-0.00000003","0.0000000000000","7880.557","116.036","1522.743","1482.102","PAYLOAD","LARGE","CIS","1986-02-11","PKMTR","","2890601","166406177","0 COSMOS 1732","1 16593U 86015A   20331.93030539 -.00000003 +00000-0 +10093-3 0  9995","2 16593 073.6074 143.4133 0025786 089.2233 271.1765 12.40987220576199"
"2.0","GENERATED VIA SPACE-TRACK.ORG API","2020-11-27T06:16:09","18 SPCS","COSMOS 1732","1986-015A","EARTH","TEME","UTC","SGP4","2020-11-26T22:19:38.385696","12.40987220","0.00257860","73.6074","143.4133","89.2233","271.1765","0","U","16593","999","57644","0.00010093000000","-0.00000003","0.0000000000000","7880.557","116.036","1522.743","1482.102","PAYLOAD","LARGE","CIS","1986-02-11","PKMTR","","2890641","166424941","0 COSMOS 1732","1 16593U 86015A   20331.93030539 -.00000003  00000-0  10093-3 0  9995","2 16593  73.6074 143.4133 0025786  89.2233 271.1765 12.40987220576447"
"2.0","GENERATED VIA SPACE-TRACK.ORG API","2020-11-26T21:46:10","18 SPCS","COSMOS 2498","2014-028C","EARTH","TEME","UTC","SGP4","2020-11-26T16:20:29.668416","12.42889988","0.00204230","82.4447","299.4618","168.4333","191.7223","0","U","39763","999","29559","0.00009875300000","0.00000024","0.0000000000000","7872.512","115.859","1510.455","1478.299","PAYLOAD","LARGE","CIS","2014-05-23","PKMTR","","2890294","166398056","0 COSMOS 2498","1 39763U 14028C   20331.68089894  .00000024  00000-0  98753-4 0  9996","2 39763  82.4447 299.4618 0020423 168.4333 191.7223 12.42889988295591"
"2.0","GENERATED VIA SPACE-TRACK.ORG API","2020-11-26T20:45:39","18 SPCS","COSMOS 1732","1986-015A","EARTH","TEME","UTC","SGP4","2020-11-26T12:39:16.236864","12.40987207","0.00257870","73.6074","143.9534","89.8179","270.5819","0","U","16593","999","57614","0.00008955200000","-0.00000005","0.0000000000000","7880.558","116.036","1522.744","1482.101","PAYLOAD","LARGE","CIS","1986-02-11","PKMTR","","2890085","166355145","0 COSMOS 1732","1 16593U 86015A   20331.52727126 -.00000005 +00000-0 +89552-4 0  9994","2 16593 073.6074 143.9534 0025787 089.8179 270.5819 12.40987207576148"
"2.0","GENERATED VIA SPACE-TRACK.ORG API","2020-11-26T20:45:39","18 SPCS","COSMOS 2498","2014-028C","EARTH","TEME","UTC","SGP4","2020-11-26T10:32:44.864160","12.42889946","0.00204210","82.4447","299.6132","168.9779","191.1760","0","U","39763","999","29556","0.00007679400000","0.00000021","0.0000000000000","7872.513","115.859","1510.454","1478.301","PAYLOAD","LARGE","CIS","2014-05-23","PKMTR","","2890085","166364000","0 COSMOS 2498","1 39763U 14028C   20331.43940815 +.00000021 +00000-0 +76794-4 0  9996","2 39763 082.4447 299.6132 0020421 168.9779 191.1760 12.42889946295562"
"2.0","GENERATED VIA SPACE-TRACK.ORG API","2020-11-26T03:25:20","18 SPCS","COSMOS 1732","1986-015A","EARTH","TEME","UTC","SGP4","2020-11-25T21:10:40.797696","12.40987199","0.00257800","73.6074","144.8176","90.7655","269.6343","0","U","16593","999","57606","0.00015414000000","0.00000004","0.0000000000000","7880.558","116.036","1522.739","1482.106","PAYLOAD","LARGE","CIS","1986-02-11","PKMTR","","2889413","166296534","0 COSMOS 1732","1 16593U 86015A   20330.88241664 +.00000004 +00000-0 +15414-3 0  9993","2 16593 073.6074 144.8176 0025780 090.7655 269.6343 12.40987199576065"
"2.0","GENERATED VIA SPACE-TRACK.ORG API","2020-11-26T03:25:20","18 SPCS","COSMOS 2498","2014-028C","EARTH","TEME","UTC","SGP4","2020-11-25T17:09:30.420288","12.42889792","0.00203870","82.4446","300.0675","170.5898","189.5571","0","U","39763","999","29547","-0.00001322900000","0.00000008","0.0000000000000","7872.513","115.859","1510.428","1478.329","PAYLOAD","LARGE","CIS","2014-05-23","PKMTR","","2889413","166309577","0 COSMOS 2498","1 39763U 14028C   20330.71493542 +.00000008 +00000-0 -13229-4 0  9996","2 39763 082.4446 300.0675 0020387 170.5898 189.5571 12.42889792295472"
"2.0","GENERATED VIA SPACE-TRACK.ORG API","2020-11-25T17:37:42","18 SPCS","COSMOS 1732","1986-015A","EARTH","TEME","UTC","SGP4","2020-11-25T13:26:23.074656","12.40987227","0.00257930","73.6073","145.2497","91.2531","269.1468","0","U","16593","999","57602","0.00017667000000","0.00000007","0.0000000000000","7880.557","116.036","1522.749","1482.096","PAYLOAD","LARGE","CIS","1986-02-11","PKMTR","","2888711","166267393","0 COSMOS 1732","1 16593U 86015A   20330.55998929 +.00000007 +00000-0 +17667-3 0  9995","2 16593 073.6073 145.2497 0025793 091.2531 269.1468 12.40987227576029"
"2.0","GENERATED VIA SPACE-TRACK.ORG API","2020-11-25T14:36:11","18 SPCS","COSMOS 2498","2014-028C","EARTH","TEME","UTC","SGP4","2020-11-25T09:25:50.667456","12.42889724","0.00203910","82.4446","300.2691","171.3213","188.8229","0","U","39763","999","29543","-0.00006191400000","0.00000001","0.0000000000000","7872.514","115.859","1510.431","1478.326","PAYLOAD","LARGE","CIS","2014-05-23","PKMTR","","2888452","166258979","0 COSMOS 2498","1 39763U 14028C   20330.39294754  .00000001  00000-0 -61914-4 0  9991","2 39763  82.4446 300.2691 0020391 171.3213 188.8229 12.42889724295430"
"2.0","GENERATED VIA SPACE-TRACK.ORG API","2020-11-25T06:16:09","18 SPCS","COSMOS 1732","1986-015A","EARTH","TEME","UTC","SGP4","2020-11-24T21:57:47.629440","12.40987233","0.00257920","73.6073","146.1139","92.2043","268.1955","0","U","16593","999","57619","0.00020970000000","0.00000011","0.0000000000000","7880.557","116.036","1522.748","1482.097","PAYLOAD","LARGE","CIS","1986-02-11","PKMTR","","2887827","166244165","0 COSMOS 1732","1 16593U 86015A   20329.91513460  .00000011  00000-0  20970-3 0  9992","2 16593  73.6073 146.1139 0025792  92.2043 268.1955 12.40987233576195"
"2.0","GENERATED VIA SPACE-TRACK.ORG API","2020-11-25T02:52:08","18 SPCS","COSMOS 1732","1986-015A","EARTH","TEME","UTC","SGP4","2020-11-24T18:05:38.768352","12.40987208","0.00257900","73.6073","146.3300","92.4459","267.9537","0","U","16593","999","57592","0.00017744000000","0.00000007","0.0000000000000","7880.558","116.036","1522.746","1482.099","PAYLOAD","LARGE","CIS","1986-02-11","PKMTR","","2887765","166224827","0 COSMOS 1732","1 16593U 86015A   20329.75392093 +.00000007 +00000-0 +17744-3 0  9991","2 16593 073.6073 146.3300 0025790 092.4459 267.9537 12.40987208575923"
"2.0","GENERATED VIA SPACE-TRACK.ORG API","2020-11-25T02:52:08","18 SPCS","COSMOS 2498","2014-028C","EARTH","TEME","UTC","SGP4","2020-11-24T17:58:31.154016","12.42889660","0.00203960","82.4444","300.6728","172.7324","187.4059","0","U","39763","999","29535","-0.00009149700000","-0.00000003","0.0000000000000","7872.514","115.859","1510.436","1478.322","PAYLOAD","LARGE","CIS","2014-05-23","PKMTR","","2887765","166237867","0 COSMOS 2498","1 39763U 14028C   20329.74897169 -.00000003 +00000-0 -91497-4 0  9999","2 39763 082.4444 300.6728 0020396 172.7324 187.4059 12.42889660295352"
"2.0","GENERATED VIA SPACE-TRACK.ORG API","2020-11-24T06:26:10","18 SPCS","COSMOS 2498","2014-028C","EARTH","TEME","UTC","SGP4","2020-11-24T04:27:06.573600","12.42889548","0.00203610","82.4445","301.0258","174.0234","186.1091","0","U","39763","999","29528","-0.00016628000000","-0.00000013","0.0000000000000","7872.514","115.859","1510.408","1478.350","PAYLOAD","LARGE","CIS","2014-05-23","PKMTR","","2886492","166181118","0 COSMOS 2498","1 39763U 14028C   20329.18549275 -.00000013  00000-0 -16628-3 0  9992","2 39763  82.4445 301.0258 0020361 174.0234 186.1091 12.42889548295282"
"2.0","GENERATED VIA SPACE-TRACK.ORG API","2020-11-24T16:43:02","18 SPCS","COSMOS 1732","1986-015A","EARTH","TEME","UTC","SGP4","2020-11-23T22:44:54.460320","12.40987169","0.00257910","73.6073","147.4103","93.6286","266.7708","0","U","16593","999","57582","0.00012263000000","-0.00000001","0.0000000000000","7880.558","116.036","1522.747","1482.098","PAYLOAD","LARGE","CIS","1986-02-11","PKMTR","","2887188","166199742","0 COSMOS 1732","1 16593U 86015A   20328.94785255 -.00000001 +00000-0 +12263-3 0  9993","2 16593 073.6073 147.4103 0025791 093.6286 266.7708 12.40987169575820"
"2.0","GENERATED VIA SPACE-TRACK.ORG API","2020-11-24T01:16:40","18 SPCS","COSMOS 2498","2014-028C","EARTH","TEME","UTC","SGP4","2020-11-23T16:51:36.927072","12.42889623","0.00203290","82.4444","301.3282","175.0603","185.0683","0","U","39763","999","29522","-0.00013148000000","-0.00000008","0.0000000000000","7872.514","115.859","1510.383","1478.375","PAYLOAD","LARGE","CIS","2014-05-23","PKMTR","","2886385","166173046","0 COSMOS 2498","1 39763U 14028C   20328.70251073 -.00000008 +00000-0 -13148-3 0  9993","2 39763 082.4444 301.3282 0020329 175.0603 185.0683 12.42889623295229"
